{
  "type": "FeatureCollection",
  "features": [
    {
      "type": "Feature",
      "properties": {
        "norad_id": 56564,
        "name": "BEIDOU-3 G4 (C62)",
        "group": "beidou",
        "lat": 0.09100151154081128,
        "lon": 116.40803022243207,
        "alt_km": 35779.654572830004,
        "timestamp": "2025-12-13T15:35:12.372031+00:00",
        "meta_object_name": "BEIDOU-3 G4 (C62)",
        "meta_object_id": "2023-066A",
        "meta_epoch": "2025-12-12T22:48:10.954656",
        "meta_mean_motion": 1.00271634,
        "meta_eccentricity": 0.00028815,
        "meta_inclination": 0.8139,
        "meta_ra_of_asc_node": 302.0742,
        "meta_arg_of_pericenter": 231.9368,
        "meta_mean_anomaly": 49.9888,
        "meta_ephemeris_type": 0,
        "meta_classification_type": "U",
        "meta_norad_cat_id": 56564,
        "meta_element_set_no": 999,
        "meta_rev_at_epoch": 952,
        "meta_bstar": 0,
        "meta_mean_motion_dot": -9.8e-07,
        "meta_mean_motion_ddot": 0,
        "tle_line1": "1 56564U 23066A   25346.95012679 -.00000098  00000+0  00000+0 0  9998",
        "tle_line2": "2 56564   0.8139 302.0742 0002881 231.9368  49.9888  1.00271634  9524"
      },
      "geometry": {
        "type": "Point",
        "coordinates": [
          116.40803022243207,
          0.09100151154081128
        ]
      }
    },
    {
      "type": "Feature",
      "properties": {
        "norad_id": 58654,
        "name": "BEIDOU-3 M28 (C50)",
        "group": "beidou",
        "lat": 55.54374309979741,
        "lon": 162.42990687776006,
        "alt_km": 21528.336745647393,
        "timestamp": "2025-12-13T15:35:12.372042+00:00",
        "meta_object_name": "BEIDOU-3 M28 (C50)",
        "meta_object_id": "2023-207A",
        "meta_epoch": "2025-12-11T21:37:33.991968",
        "meta_mean_motion": 1.86229651,
        "meta_eccentricity": 0.00023562,
        "meta_inclination": 55.5838,
        "meta_ra_of_asc_node": 68.6297,
        "meta_arg_of_pericenter": 269.3243,
        "meta_mean_anomaly": 90.6691,
        "meta_ephemeris_type": 0,
        "meta_classification_type": "U",
        "meta_norad_cat_id": 58654,
        "meta_element_set_no": 999,
        "meta_rev_at_epoch": 1335,
        "meta_bstar": 0,
        "meta_mean_motion_dot": -6.9e-07,
        "meta_mean_motion_ddot": 0,
        "tle_line1": "1 58654U 23207A   25345.90108787 -.00000069  00000+0  00000+0 0  9995",
        "tle_line2": "2 58654  55.5838  68.6297 0002356 269.3243  90.6691  1.86229651 13350"
      },
      "geometry": {
        "type": "Point",
        "coordinates": [
          162.42990687776006,
          55.54374309979741
        ]
      }
    },
    {
      "type": "Feature",
      "properties": {
        "norad_id": 58655,
        "name": "BEIDOU-3 M26 (C48)",
        "group": "beidou",
        "lat": -37.7103794828794,
        "lon": -79.47946909567732,
        "alt_km": 21523.250257963864,
        "timestamp": "2025-12-13T15:35:12.372053+00:00",
        "meta_object_name": "BEIDOU-3 M26 (C48)",
        "meta_object_id": "2023-207B",
        "meta_epoch": "2025-12-11T03:52:58.066752",
        "meta_mean_motion": 1.86231203,
        "meta_eccentricity": 0.000378,
        "meta_inclination": 55.5852,
        "meta_ra_of_asc_node": 68.6411,
        "meta_arg_of_pericenter": 255.3563,
        "meta_mean_anomaly": 104.6232,
        "meta_ephemeris_type": 0,
        "meta_classification_type": "U",
        "meta_norad_cat_id": 58655,
        "meta_element_set_no": 999,
        "meta_rev_at_epoch": 1332,
        "meta_bstar": 0,
        "meta_mean_motion_dot": -6.3e-07,
        "meta_mean_motion_ddot": 0,
        "tle_line1": "1 58655U 23207B   25345.16178318 -.00000063  00000+0  00000+0 0  9995",
        "tle_line2": "2 58655  55.5852  68.6411 0003780 255.3563 104.6232  1.86231203 13327"
      },
      "geometry": {
        "type": "Point",
        "coordinates": [
          -79.47946909567732,
          -37.7103794828794
        ]
      }
    },
    {
      "type": "Feature",
      "properties": {
        "norad_id": 61186,
        "name": "BEIDOU-3 M25 (C47)",
        "group": "beidou",
        "lat": -12.353642478314514,
        "lon": -60.27127754457356,
        "alt_km": 21519.640964702463,
        "timestamp": "2025-12-13T15:35:12.372064+00:00",
        "meta_object_name": "BEIDOU-3 M25 (C47)",
        "meta_object_id": "2024-168B",
        "meta_epoch": "2025-12-12T20:48:06.582240",
        "meta_mean_motion": 1.86230172,
        "meta_eccentricity": 0.00054256,
        "meta_inclination": 54.6417,
        "meta_ra_of_asc_node": 308.715,
        "meta_arg_of_pericenter": 297.6851,
        "meta_mean_anomaly": 242.2861,
        "meta_ephemeris_type": 0,
        "meta_classification_type": "U",
        "meta_norad_cat_id": 61186,
        "meta_element_set_no": 999,
        "meta_rev_at_epoch": 831,
        "meta_bstar": 0,
        "meta_mean_motion_dot": -9.5e-07,
        "meta_mean_motion_ddot": 0,
        "tle_line1": "1 61186U 24168B   25346.86674285 -.00000095  00000+0  00000+0 0  9992",
        "tle_line2": "2 61186  54.6417 308.7150 0005425 297.6851 242.2861  1.86230172  8316"
      },
      "geometry": {
        "type": "Point",
        "coordinates": [
          -60.27127754457356,
          -12.353642478314514
        ]
      }
    },
    {
      "type": "Feature",
      "properties": {
        "norad_id": 61187,
        "name": "BEIDOU-3 M27 (C49)",
        "group": "beidou",
        "lat": 45.077973779046545,
        "lon": 83.28292728580597,
        "alt_km": 21528.019856898532,
        "timestamp": "2025-12-13T15:35:12.372075+00:00",
        "meta_object_name": "BEIDOU-3 M27 (C49)",
        "meta_object_id": "2024-168C",
        "meta_epoch": "2025-12-12T03:14:00.933792",
        "meta_mean_motion": 1.86230278,
        "meta_eccentricity": 0.00023762,
        "meta_inclination": 54.6378,
        "meta_ra_of_asc_node": 308.7239,
        "meta_arg_of_pericenter": 336.4923,
        "meta_mean_anomaly": 207.6472,
        "meta_ephemeris_type": 0,
        "meta_classification_type": "U",
        "meta_norad_cat_id": 61187,
        "meta_element_set_no": 999,
        "meta_rev_at_epoch": 577,
        "meta_bstar": 0,
        "meta_mean_motion_dot": -9.1e-07,
        "meta_mean_motion_ddot": 0,
        "tle_line1": "1 61187U 24168C   25346.13473303 -.00000091  00000+0  00000+0 0  9997",
        "tle_line2": "2 61187  54.6378 308.7239 0002376 336.4923 207.6472  1.86230278  5772"
      },
      "geometry": {
        "type": "Point",
        "coordinates": [
          83.28292728580597,
          45.077973779046545
        ]
      }
    }
  ]
}